[{"OBJECT_NAME":"YAOGAN-40 01A","OBJECT_ID":"2023-139A","EPOCH":"2026-03-09T23:20:31.440768","MEAN_MOTION":14.12429316,"ECCENTRICITY":0.00020937,"INCLINATION":85.9907,"RA_OF_ASC_NODE":304.5051,"ARG_OF_PERICENTER":91.437,"MEAN_ANOMALY":268.7053,"EPHEMERIS_TYPE":0,"CLASSIFICATION_TYPE":"U","NORAD_CAT_ID":57830,"ELEMENT_SET_NO":999,"REV_AT_EPOCH":12869,"BSTAR":6.725684e-5,"MEAN_MOTION_DOT":1.43e-6,"MEAN_MOTION_DDOT":0},{"OBJECT_NAME":"DELTA 1 R\/B","OBJECT_ID":"1983-004B","EPOCH":"2026-03-09T22:44:49.217568","MEAN_MOTION":14.09693163,"ECCENTRICITY":0.00208987,"INCLINATION":100.0767,"RA_OF_ASC_NODE":109.871,"ARG_OF_PERICENTER":187.9149,"MEAN_ANOMALY":172.1691,"EPHEMERIS_TYPE":0,"CLASSIFICATION_TYPE":"U","NORAD_CAT_ID":13778,"ELEMENT_SET_NO":999,"REV_AT_EPOCH":21574,"BSTAR":5.9289798e-5,"MEAN_MOTION_DOT":5.0e-7,"MEAN_MOTION_DDOT":0}]
